BEESAT-4                
1 41619U 16040W   21073.59767238  .00003263  00000-0  13327-3 0  9995
2 41619  97.2821 132.3122 0009323 312.6465  47.3986 15.25053375250550
CAS-2T & KS-1Q          
1 41847U 16066G   21073.50959484  .00000217  00000-0  42130-4 0  9994
2 41847  98.6143 132.1925 0366131 143.6310 219.0366 14.38158577228231
NAYIF-1 (EO-88)         
1 42017U 17008BX  21073.46978164  .00003325  00000-0  12561-3 0  9999
2 42017  97.3260 142.7562 0007758  88.1917 272.0211 15.27659595226752
ZHUHAI-1 02 (CAS-4B)    
1 42759U 17034B   21074.11929426  .00000484  00000-0  42542-4 0  9997
2 42759  43.0186 339.6610 0010738 293.2166 206.8678 15.10110283206880
ZHUHAI-1 01 (CAS-4A)    
1 42761U 17034D   21074.17804485  .00000471  00000-0  41712-4 0  9997
2 42761  43.0188 338.4562 0011111 295.2919 185.4890 15.10191621206896
MAX VALIER SAT          
1 42778U 17036P   21073.59040417  .00001775  00000-0  77546-4 0  9991
2 42778  97.2683 125.2630 0013063 144.7133 215.4972 15.23300133206841
RADFXSAT (FOX-1B)       
1 43017U 17073E   21073.57894366  .00000887  00000-0  74466-4 0  9998
2 43017  97.7140 341.3063 0254088 249.7890 107.5836 14.79381566179097
FOX-1D (AO-92)          
1 43137U 18004AC  21073.45843584  .00001978  00000-0  82308-4 0  9995
2 43137  97.4147 148.4475 0008969 175.6285 184.5033 15.24910355176183
DIWATA-2B               
1 43678U 18084H   21074.07595861 -.00000200  00000-0 -14117-4 0  9996
2 43678  97.9080 198.9545 0010474  10.0173 350.1233 14.91715915129363
ES'HAIL 2               
1 43700U 18090A   21073.53032332  .00000131  00000-0  00000-0 0  9991
2 43700   0.0190 189.7661 0002105 200.5652 358.7103  1.00270993  8413
FOX-1CLIFF (AO-95)      
1 43770U 18099N   21073.75997997  .00000526  00000-0  52912-4 0  9999
2 43770  97.6742 146.0040 0014937  20.5043 339.6774 14.95228027124300
ITASAT 1                
1 43786U 18099AE  21074.16652226  .00000243  00000-0  27029-4 0  9992
2 43786  97.6760 147.0144 0015387  12.1352 348.0236 14.95535900124390
JY1SAT (JO-97)          
1 43803U 18099AX  21073.74393626  .00001048  00000-0  98938-4 0  9992
2 43803  97.6719 146.3645 0015200  13.9294 346.2343 14.95759481124335
UWE-4                   
1 43880U 18111E   21073.99163350  .00000186  00000-0  21269-4 0  9993
2 43880  97.6927 343.3141 0013539  62.6231 297.6367 14.96759550118950
PSAT2 (NO-104)          
1 44354U 19036R   21074.19908642  .00030398  00000-0  41911-3 0  9994
2 44354  28.5308  34.2759 0336698 336.0088  22.5141 15.10541937 94689
BRICSAT2 (NO-103)       
1 44355U 19036S   21073.49833139  .00064601  00000-0  76974-3 0  9996
2 44355  28.5276   7.7742 0288211  19.0952 342.0203 15.23189443 94892
JAISAT-1                
1 44419U 19038F   21073.44252769  .00001718  00000-0  99425-4 0  9995
2 44419  97.5775  38.5801 0019522 281.1896  78.7140 15.13475643 93427
DUCHIFAT-3              
1 44854U 19089C   21073.96720288  .00000568  00000-0  51965-4 0  9996
2 44854  36.9673 299.3578 0006768  87.6744 272.4785 14.99370290 68910
RS-44 & BREEZE-KM R/B   
1 44909U 19096E   21073.55697920  .00000026  00000-0  68040-4 0  9997
2 44909  82.5253 175.8592 0216499 315.1857  43.1933 12.79708736 56702
ORBITAL FACTORY 2 (OF-2)
1 45113U 19071C   21073.57512095  .00005632  00000-0  17398-3 0  9996
2 45113  51.6418 137.2985 0012010 312.7453  47.2518 15.35016113 62590
HUSKYSAT-1 (HO-107)     
1 45119U 19071J   21074.17570497  .00005037  00000-0  15637-3 0  9992
2 45119  51.6412 133.8066 0011334 311.6473  48.3538 15.35106573 62684
BY70-2                  
1 45857U 20042B   21074.13318861  .00001212  00000-0  18008-3 0  9998
2 45857  97.9896 150.8602 0012405 152.1932 207.9963 14.76761049 37625
SALSAT                  
1 46495U 20068K   21073.61794316  .00000436  00000-0  36529-4 0  9996
2 46495  97.6873  11.7239 0018095  38.9089 321.3436 15.03379196 25084
BY70-3                  
1 46839U 20079N   21074.20894037  .00003170  00000-0  10176-3 0  9994
2 46839  97.2488 149.9443 0007575 170.6771 247.2238 15.33009391 19762
RADFXSAT-2 (AO-109)     
1 47311U 21002C   21073.85937658  .00001901  00000-0  95807-4 0  9999
2 47311  60.6845 285.2159 0020875 348.4713  11.5892 15.21341426  8486
UVSQ-SAT                
1 47438U 21006AB  21074.14027839  .00001343  00000-0  79773-4 0  9991
2 47438  97.4991 137.0095 0014252  67.2631 293.0105 15.12918673  7797
